ORBCOMM FM37            
1 33064U 08031E   24171.19790353  .00001567  00000+0  25089-3 0  9995
2 33064  48.4405 265.4317 0006739 263.7514 178.6177 14.76681877860662
ORBCOMM FM40            
1 33065U 08031F   24170.97162269  .00001943  00000+0  29474-3 0  9990
2 33065  48.4424 255.4863 0008075 271.7573 258.3863 14.78056856860357
VESSELSAT 1             
1 37840U 11058C   24171.24076405  .00000368  00000+0  56075-4 0  9993
2 37840  19.9608 129.7734 0013790 154.1701 205.9393 14.11166742655201
ORBCOMM FM109           
1 40086U 14040A   24171.15170255  .00001077  00000+0  27569-3 0  9994
2 40086  47.0047 289.1223 0000902 100.2868 259.8118 14.56749020528226
ORBCOMM FM107           
1 40087U 14040B   24170.49980691  .00001176  00000+0  29763-3 0  9992
2 40087  47.0064 293.1630 0000656   4.6411 355.4480 14.56757753528081
ORBCOMM FM106           
1 40088U 14040C   24171.16757837  .00001198  00000+0  24301-3 0  9999
2 40088  47.0601 140.2086 0017440 183.6523 176.4243 14.67195533530330
ORBCOMM FM111           
1 40089U 14040D   24170.93496099  .00001325  00000+0  18982-3 0  9994
2 40089  47.0065  37.6551 0033476 257.0869 102.6287 14.82061047536263
ORBCOMM FM104           
1 40090U 14040E   24171.19764433  .00000749  00000+0  20969-3 0  9992
2 40090  47.0067 319.2346 0016949 344.2495  15.7860 14.55236696527825
